CCSDS_OMM_VERS = 2.0
CREATION_DATE  = 
ORIGINATOR     = 

OBJECT_NAME    = SL-14 R/B
OBJECT_ID      = 1986-046B
CENTER_NAME    = EARTH
REF_FRAME      = TEME
TIME_SYSTEM    = UTC
MEAN_ELEMENT_THEORY = SGP/SGP4

EPOCH          = 2025-12-02T11:25:07.476672
MEAN_MOTION    = 14.85467187
ECCENTRICITY   = .002293
INCLINATION    = 82.4813
RA_OF_ASC_NODE = 172.0074
ARG_OF_PERICENTER = 185.7554
MEAN_ANOMALY   = 174.3402

EPHEMERIS_TYPE = 0
CLASSIFICATION_TYPE = U
NORAD_CAT_ID   = 16792
ELEMENT_SET_NO = 999
REV_AT_EPOCH   = 11197
BSTAR          = .75939E-4
MEAN_MOTION_DOT = .682E-5
MEAN_MOTION_DDOT = 0

CCSDS_OMM_VERS = 2.0
CREATION_DATE  = 
ORIGINATOR     = 

OBJECT_NAME    = SL-14 R/B
OBJECT_ID      = 1986-055B
CENTER_NAME    = EARTH
REF_FRAME      = TEME
TIME_SYSTEM    = UTC
MEAN_ELEMENT_THEORY = SGP/SGP4

EPOCH          = 2025-12-02T10:16:17.076288
MEAN_MOTION    = 14.85514445
ECCENTRICITY   = .0017623
INCLINATION    = 82.5213
RA_OF_ASC_NODE = 218.0613
ARG_OF_PERICENTER = 296.4641
MEAN_ANOMALY   = 236.9004

EPHEMERIS_TYPE = 0
CLASSIFICATION_TYPE = U
NORAD_CAT_ID   = 16882
ELEMENT_SET_NO = 999
REV_AT_EPOCH   = 10492
BSTAR          = .78025E-4
MEAN_MOTION_DOT = .699E-5
MEAN_MOTION_DDOT = 0

CCSDS_OMM_VERS = 2.0
CREATION_DATE  = 
ORIGINATOR     = 

OBJECT_NAME    = AJISAI (EGS)
OBJECT_ID      = 1986-061A
CENTER_NAME    = EARTH
REF_FRAME      = TEME
TIME_SYSTEM    = UTC
MEAN_ELEMENT_THEORY = SGP/SGP4

EPOCH          = 2025-12-02T11:17:49.038144
MEAN_MOTION    = 12.44514099
ECCENTRICITY   = .0011261
INCLINATION    = 50.0113
RA_OF_ASC_NODE = 32.2935
ARG_OF_PERICENTER = 40.1129
MEAN_ANOMALY   = 60.4489

EPHEMERIS_TYPE = 0
CLASSIFICATION_TYPE = U
NORAD_CAT_ID   = 16908
ELEMENT_SET_NO = 999
REV_AT_EPOCH   = 45589
BSTAR          = -.45447E-4
MEAN_MOTION_DOT = -.104E-5
MEAN_MOTION_DDOT = 0

CCSDS_OMM_VERS = 2.0
CREATION_DATE  = 
ORIGINATOR     = 

OBJECT_NAME    = COSMOS 1812
OBJECT_ID      = 1987-003A
CENTER_NAME    = EARTH
REF_FRAME      = TEME
TIME_SYSTEM    = UTC
MEAN_ELEMENT_THEORY = SGP/SGP4

EPOCH          = 2025-12-02T08:51:30.314304
MEAN_MOTION    = 15.72957866
ECCENTRICITY   = .0007132
INCLINATION    = 82.4871
RA_OF_ASC_NODE = 303.2218
ARG_OF_PERICENTER = 99.1669
MEAN_ANOMALY   = 261.0402

EPHEMERIS_TYPE = 0
CLASSIFICATION_TYPE = U
NORAD_CAT_ID   = 17295
ELEMENT_SET_NO = 999
REV_AT_EPOCH   = 12902
BSTAR          = .68863E-3
MEAN_MOTION_DOT = .94511E-3
MEAN_MOTION_DDOT = 0

CCSDS_OMM_VERS = 2.0
CREATION_DATE  = 
ORIGINATOR     = 

OBJECT_NAME    = SL-14 R/B
OBJECT_ID      = 1987-024B
CENTER_NAME    = EARTH
REF_FRAME      = TEME
TIME_SYSTEM    = UTC
MEAN_ELEMENT_THEORY = SGP/SGP4

EPOCH          = 2025-12-02T11:27:01.310400
MEAN_MOTION    = 14.86007589
ECCENTRICITY   = .0017253
INCLINATION    = 82.5281
RA_OF_ASC_NODE = 184.0950
ARG_OF_PERICENTER = 219.3071
MEAN_ANOMALY   = 140.6895

EPHEMERIS_TYPE = 0
CLASSIFICATION_TYPE = U
NORAD_CAT_ID   = 17567
ELEMENT_SET_NO = 999
REV_AT_EPOCH   = 7369
BSTAR          = .72171E-4
MEAN_MOTION_DOT = .656E-5
MEAN_MOTION_DDOT = 0

CCSDS_OMM_VERS = 2.0
CREATION_DATE  = 
ORIGINATOR     = 

OBJECT_NAME    = COSMOS 1833
OBJECT_ID      = 1987-027A
CENTER_NAME    = EARTH
REF_FRAME      = TEME
TIME_SYSTEM    = UTC
MEAN_ELEMENT_THEORY = SGP/SGP4

EPOCH          = 2025-12-02T05:46:35.133024
MEAN_MOTION    = 14.13018353
ECCENTRICITY   = .0022092
INCLINATION    = 70.9126
RA_OF_ASC_NODE = 170.8484
ARG_OF_PERICENTER = 346.5142
MEAN_ANOMALY   = 13.5386

EPHEMERIS_TYPE = 0
CLASSIFICATION_TYPE = U
NORAD_CAT_ID   = 17589
ELEMENT_SET_NO = 999
REV_AT_EPOCH   = 99654
BSTAR          = .47919E-4
MEAN_MOTION_DOT = .41E-6
MEAN_MOTION_DDOT = 0

CCSDS_OMM_VERS = 2.0
CREATION_DATE  = 
ORIGINATOR     = 

OBJECT_NAME    = SL-16 R/B
OBJECT_ID      = 1987-027B
CENTER_NAME    = EARTH
REF_FRAME      = TEME
TIME_SYSTEM    = UTC
MEAN_ELEMENT_THEORY = SGP/SGP4

EPOCH          = 2025-12-02T11:55:42.825216
MEAN_MOTION    = 14.17151952
ECCENTRICITY   = .0007492
INCLINATION    = 71.0019
RA_OF_ASC_NODE = 121.3006
ARG_OF_PERICENTER = 270.4357
MEAN_ANOMALY   = 89.5908

EPHEMERIS_TYPE = 0
CLASSIFICATION_TYPE = U
NORAD_CAT_ID   = 17590
ELEMENT_SET_NO = 999
REV_AT_EPOCH   = 157
BSTAR          = .48948E-4
MEAN_MOTION_DOT = .51E-6
MEAN_MOTION_DDOT = 0

CCSDS_OMM_VERS = 2.0
CREATION_DATE  = 
ORIGINATOR     = 

OBJECT_NAME    = SL-14 R/B
OBJECT_ID      = 1987-038B
CENTER_NAME    = EARTH
REF_FRAME      = TEME
TIME_SYSTEM    = UTC
MEAN_ELEMENT_THEORY = SGP/SGP4

EPOCH          = 2025-12-02T10:07:53.671008
MEAN_MOTION    = 14.85245943
ECCENTRICITY   = .0020598
INCLINATION    = 82.5026
RA_OF_ASC_NODE = 28.4184
ARG_OF_PERICENTER = 123.8416
MEAN_ANOMALY   = 236.4764

EPHEMERIS_TYPE = 0
CLASSIFICATION_TYPE = U
NORAD_CAT_ID   = 17912
ELEMENT_SET_NO = 999
REV_AT_EPOCH   = 6479
BSTAR          = .7371E-4
MEAN_MOTION_DOT = .659E-5
MEAN_MOTION_DDOT = 0

CCSDS_OMM_VERS = 2.0
CREATION_DATE  = 
ORIGINATOR     = 

OBJECT_NAME    = COSMOS 1844
OBJECT_ID      = 1987-041A
CENTER_NAME    = EARTH
REF_FRAME      = TEME
TIME_SYSTEM    = UTC
MEAN_ELEMENT_THEORY = SGP/SGP4

EPOCH          = 2025-12-02T10:47:25.683648
MEAN_MOTION    = 14.14527857
ECCENTRICITY   = .0030452
INCLINATION    = 70.8990
RA_OF_ASC_NODE = 239.2742
ARG_OF_PERICENTER = 173.4280
MEAN_ANOMALY   = 186.7248

EPHEMERIS_TYPE = 0
CLASSIFICATION_TYPE = U
NORAD_CAT_ID   = 17973
ELEMENT_SET_NO = 999
REV_AT_EPOCH   = 98983
BSTAR          = -.46543E-4
MEAN_MOTION_DOT = -.138E-5
MEAN_MOTION_DDOT = 0

CCSDS_OMM_VERS = 2.0
CREATION_DATE  = 
ORIGINATOR     = 

OBJECT_NAME    = SL-14 R/B
OBJECT_ID      = 1987-055B
CENTER_NAME    = EARTH
REF_FRAME      = TEME
TIME_SYSTEM    = UTC
MEAN_ELEMENT_THEORY = SGP/SGP4

EPOCH          = 2025-12-02T11:35:48.723648
MEAN_MOTION    = 14.85503550
ECCENTRICITY   = .0020082
INCLINATION    = 82.4999
RA_OF_ASC_NODE = 80.6536
ARG_OF_PERICENTER = 338.8998
MEAN_ANOMALY   = 21.1388

EPHEMERIS_TYPE = 0
CLASSIFICATION_TYPE = U
NORAD_CAT_ID   = 18153
ELEMENT_SET_NO = 999
REV_AT_EPOCH   = 5550
BSTAR          = .82753E-4
MEAN_MOTION_DOT = .74E-5
MEAN_MOTION_DDOT = 0

CCSDS_OMM_VERS = 2.0
CREATION_DATE  = 
ORIGINATOR     = 

OBJECT_NAME    = COSMOS 1867
OBJECT_ID      = 1987-060A
CENTER_NAME    = EARTH
REF_FRAME      = TEME
TIME_SYSTEM    = UTC
MEAN_ELEMENT_THEORY = SGP/SGP4

EPOCH          = 2025-12-02T09:40:14.843712
MEAN_MOTION    = 14.31483442
ECCENTRICITY   = .0013634
INCLINATION    = 65.0098
RA_OF_ASC_NODE = 219.1495
ARG_OF_PERICENTER = 270.1175
MEAN_ANOMALY   = 89.8347

EPHEMERIS_TYPE = 0
CLASSIFICATION_TYPE = U
NORAD_CAT_ID   = 18187
ELEMENT_SET_NO = 999
REV_AT_EPOCH   = 601
BSTAR          = .3688E-4
MEAN_MOTION_DOT = -.2E-7
MEAN_MOTION_DDOT = 0

CCSDS_OMM_VERS = 2.0
CREATION_DATE  = 
ORIGINATOR     = 

OBJECT_NAME    = COSMOS 1892
OBJECT_ID      = 1987-088A
CENTER_NAME    = EARTH
REF_FRAME      = TEME
TIME_SYSTEM    = UTC
MEAN_ELEMENT_THEORY = SGP/SGP4

EPOCH          = 2025-12-01T22:59:15.476064
MEAN_MOTION    = 16.35834047
ECCENTRICITY   = .00068203
INCLINATION    = 82.4559
RA_OF_ASC_NODE = 55.6045
ARG_OF_PERICENTER = 269.6843
MEAN_ANOMALY   = 90.3672

EPHEMERIS_TYPE = 0
CLASSIFICATION_TYPE = U
NORAD_CAT_ID   = 18421
ELEMENT_SET_NO = 999
REV_AT_EPOCH   = 8960
BSTAR          = .53123849E-3
MEAN_MOTION_DOT = .4125319E-1
MEAN_MOTION_DDOT = -.1243662E-5

