SL-14 R/B               
1 16792U 86046B   25336.47578098  .00000682  00000+0  75939-4 0  9998
2 16792  82.4813 172.0074 0022930 185.7554 174.3402 14.85467187111976
SL-14 R/B               
1 16882U 86055B   25336.42797542  .00000699  00000+0  78025-4 0  9997
2 16882  82.5213 218.0613 0017623 296.4641 236.9004 14.85514445104921
AJISAI (EGS)            
1 16908U 86061A   25336.47070646 -.00000104  00000+0 -45447-4 0  9992
2 16908  50.0113  32.2935 0011261  40.1129  60.4489 12.44514099455899
COSMOS 1812             
1 17295U 87003A   25336.36910086  .00094511  00000+0  68863-3 0  9997
2 17295  82.4871 303.2218 0007132  99.1669 261.0402 15.72957866129023
SL-14 R/B               
1 17567U 87024B   25336.47709850  .00000656  00000+0  72171-4 0  9994
2 17567  82.5281 184.0950 0017253 219.3071 140.6895 14.86007589 73698
COSMOS 1833             
1 17589U 87027A   25336.24068441  .00000041  00000+0  47919-4 0  9990
2 17589  70.9126 170.8484 0022092 346.5142  13.5386 14.13018353996547
SL-16 R/B               
1 17590U 87027B   25336.49702344  .00000051  00000+0  48948-4 0  9990
2 17590  71.0019 121.3006 0007492 270.4357  89.5908 14.17151952  1573
SL-14 R/B               
1 17912U 87038B   25336.42214897  .00000659  00000+0  73710-4 0  9993
2 17912  82.5026  28.4184 0020598 123.8416 236.4764 14.85245943 64794
COSMOS 1844             
1 17973U 87041A   25336.44960282 -.00000138  00000+0 -46543-4 0  9990
2 17973  70.8990 239.2742 0030452 173.4280 186.7248 14.14527857989837
SL-14 R/B               
1 18153U 87055B   25336.48320282  .00000740  00000+0  82753-4 0  9990
2 18153  82.4999  80.6536 0020082 338.8998  21.1388 14.85503550 55503
COSMOS 1867             
1 18187U 87060A   25336.40294958 -.00000002  00000+0  36880-4 0  9997
2 18187  65.0098 219.1495 0013634 270.1175  89.8347 14.31483442  6016
COSMOS 1892             
1 18421U 87088A   25335.95781801  .04125319 -12437-5  53124-3 0  9990
2 18421  82.4559  55.6045 0006820 269.6843  90.3672 16.35834047 89601
